[{"OBJECT_NAME":"ONEWEB-0505","OBJECT_ID":"2022-138L","EPOCH":"2026-04-29T23:33:15.341184","MEAN_MOTION":13.19726527,"ECCENTRICITY":0.0002184,"INCLINATION":87.9161,"RA_OF_ASC_NODE":314.5771,"ARG_OF_PERICENTER":80.6954,"MEAN_ANOMALY":279.4426,"EPHEMERIS_TYPE":0,"CLASSIFICATION_TYPE":"U","NORAD_CAT_ID":54123,"ELEMENT_SET_NO":999,"REV_AT_EPOCH":17045,"BSTAR":9.9124e-06,"MEAN_MOTION_DOT":1.7e-07,"MEAN_MOTION_DDOT":0.0},{"OBJECT_NAME":"ONEWEB-0506","OBJECT_ID":"2022-138M","EPOCH":"2026-04-30T00:46:03.724320","MEAN_MOTION":13.19724652,"ECCENTRICITY":0.0001978,"INCLINATION":87.9159,"RA_OF_ASC_NODE":314.5638,"ARG_OF_PERICENTER":83.0174,"MEAN_ANOMALY":277.1183,"EPHEMERIS_TYPE":0,"CLASSIFICATION_TYPE":"U","NORAD_CAT_ID":54124,"ELEMENT_SET_NO":999,"REV_AT_EPOCH":17045,"BSTAR":0.00016374,"MEAN_MOTION_DOT":7.9e-07,"MEAN_MOTION_DDOT":0.0},{"OBJECT_NAME":"ONEWEB-0507","OBJECT_ID":"2022-138N","EPOCH":"2026-04-29T23:26:26.473056","MEAN_MOTION":13.19723817,"ECCENTRICITY":0.0001893,"INCLINATION":87.915,"RA_OF_ASC_NODE":314.5915,"ARG_OF_PERICENTER":82.8163,"MEAN_ANOMALY":277.3185,"EPHEMERIS_TYPE":0,"CLASSIFICATION_TYPE":"U","NORAD_CAT_ID":54125,"ELEMENT_SET_NO":999,"REV_AT_EPOCH":17049,"BSTAR":6.7698e-05,"MEAN_MOTION_DOT":4e-07,"MEAN_MOTION_DDOT":0.0},{"OBJECT_NAME":"ONEWEB-0508","OBJECT_ID":"2022-138P","EPOCH":"2026-04-29T23:21:54.701856","MEAN_MOTION":13.19725054,"ECCENTRICITY":0.0001936,"INCLINATION":87.915,"RA_OF_ASC_NODE":314.5916,"ARG_OF_PERICENTER":75.1425,"MEAN_ANOMALY":284.9922,"EPHEMERIS_TYPE":0,"CLASSIFICATION_TYPE":"U","NORAD_CAT_ID":54126,"ELEMENT_SET_NO":999,"REV_AT_EPOCH":17047,"BSTAR":0.00021820000000000002,"MEAN_MOTION_DOT":1e-06,"MEAN_MOTION_DDOT":0.0},{"OBJECT_NAME":"ONEWEB-0509","OBJECT_ID":"2022-138Q","EPOCH":"2026-04-30T02:23:52.679328","MEAN_MOTION":13.1972437,"ECCENTRICITY":0.0001856,"INCLINATION":87.9161,"RA_OF_ASC_NODE":314.551,"ARG_OF_PERICENTER":85.5081,"MEAN_ANOMALY":274.6264,"EPHEMERIS_TYPE":0,"CLASSIFICATION_TYPE":"U","NORAD_CAT_ID":54127,"ELEMENT_SET_NO":999,"REV_AT_EPOCH":17046,"BSTAR":0.00014409,"MEAN_MOTION_DOT":7.1e-07,"MEAN_MOTION_DDOT":0.0},{"OBJECT_NAME":"ONEWEB-0510","OBJECT_ID":"2022-138R","EPOCH":"2026-04-29T22:48:15.437088","MEAN_MOTION":13.20773142,"ECCENTRICITY":0.0001645,"INCLINATION":87.9145,"RA_OF_ASC_NODE":284.0605,"ARG_OF_PERICENTER":110.3349,"MEAN_ANOMALY":249.7961,"EPHEMERIS_TYPE":0,"CLASSIFICATION_TYPE":"U","NORAD_CAT_ID":54128,"ELEMENT_SET_NO":999,"REV_AT_EPOCH":17291,"BSTAR":0.00017092,"MEAN_MOTION_DOT":8.2e-07,"MEAN_MOTION_DDOT":0.0},{"OBJECT_NAME":"ONEWEB-0511","OBJECT_ID":"2022-138S","EPOCH":"2026-04-30T02:19:18.666048","MEAN_MOTION":13.19726641,"ECCENTRICITY":0.0002093,"INCLINATION":87.9159,"RA_OF_ASC_NODE":314.5556,"ARG_OF_PERICENTER":91.9832,"MEAN_ANOMALY":268.154,"EPHEMERIS_TYPE":0,"CLASSIFICATION_TYPE":"U","NORAD_CAT_ID":54129,"ELEMENT_SET_NO":999,"REV_AT_EPOCH":17049,"BSTAR":8.9542e-05,"MEAN_MOTION_DOT":4.9e-07,"MEAN_MOTION_DDOT":0.0},{"OBJECT_NAME":"ONEWEB-0512","OBJECT_ID":"2022-138T","EPOCH":"2026-04-30T02:07:57.350208","MEAN_MOTION":13.19725906,"ECCENTRICITY":0.0002113,"INCLINATION":87.9149,"RA_OF_ASC_NODE":314.5657,"ARG_OF_PERICENTER":84.6645,"MEAN_ANOMALY":275.4729,"EPHEMERIS_TYPE":0,"CLASSIFICATION_TYPE":"U","NORAD_CAT_ID":54130,"ELEMENT_SET_NO":999,"REV_AT_EPOCH":17046,"BSTAR":0.00013871,"MEAN_MOTION_DOT":6.8e-07,"MEAN_MOTION_DDOT":0.0},{"OBJECT_NAME":"ONEWEB-0513","OBJECT_ID":"2022-138U","EPOCH":"2026-04-30T06:22:42.247200","MEAN_MOTION":13.20266252,"ECCENTRICITY":0.0002741,"INCLINATION":87.9155,"RA_OF_ASC_NODE":314.4806,"ARG_OF_PERICENTER":84.7406,"MEAN_ANOMALY":275.4039,"EPHEMERIS_TYPE":0,"CLASSIFICATION_TYPE":"U","NORAD_CAT_ID":54131,"ELEMENT_SET_NO":999,"REV_AT_EPOCH":17039,"BSTAR":0.00012298000000000002,"MEAN_MOTION_DOT":6.3e-07,"MEAN_MOTION_DDOT":0.0},{"OBJECT_NAME":"ONEWEB-0514","OBJECT_ID":"2022-138V","EPOCH":"2026-04-30T06:09:02.438208","MEAN_MOTION":13.19724477,"ECCENTRICITY":0.0001743,"INCLINATION":87.9155,"RA_OF_ASC_NODE":314.522,"ARG_OF_PERICENTER":92.4457,"MEAN_ANOMALY":267.6875,"EPHEMERIS_TYPE":0,"CLASSIFICATION_TYPE":"U","NORAD_CAT_ID":54132,"ELEMENT_SET_NO":999,"REV_AT_EPOCH":17050,"BSTAR":0.00030833,"MEAN_MOTION_DOT":1.36e-06,"MEAN_MOTION_DDOT":0.0},{"OBJECT_NAME":"ONEWEB-0515","OBJECT_ID":"2022-138W","EPOCH":"2026-04-30T00:19:07.732416","MEAN_MOTION":13.20773404,"ECCENTRICITY":9.44e-05,"INCLINATION":87.9152,"RA_OF_ASC_NODE":284.0399,"ARG_OF_PERICENTER":106.27,"MEAN_ANOMALY":253.8537,"EPHEMERIS_TYPE":0,"CLASSIFICATION_TYPE":"U","NORAD_CAT_ID":54133,"ELEMENT_SET_NO":999,"REV_AT_EPOCH":17294,"BSTAR":6.9439e-06,"MEAN_MOTION_DOT":1.6e-07,"MEAN_MOTION_DDOT":0.0},{"OBJECT_NAME":"ONEWEB-0516","OBJECT_ID":"2022-138X","EPOCH":"2026-04-30T00:05:05.986464","MEAN_MOTION":13.19724038,"ECCENTRICITY":0.0001738,"INCLINATION":87.9149,"RA_OF_ASC_NODE":314.5833,"ARG_OF_PERICENTER":84.5251,"MEAN_ANOMALY":275.608,"EPHEMERIS_TYPE":0,"CLASSIFICATION_TYPE":"U","NORAD_CAT_ID":54134,"ELEMENT_SET_NO":999,"REV_AT_EPOCH":17047,"BSTAR":5.2582e-05,"MEAN_MOTION_DOT":3.4e-07,"MEAN_MOTION_DDOT":0.0},{"OBJECT_NAME":"ONEWEB-0517","OBJECT_ID":"2022-138Y","EPOCH":"2026-04-29T23:35:32.844192","MEAN_MOTION":13.19724068,"ECCENTRICITY":0.0001997,"INCLINATION":87.915,"RA_OF_ASC_NODE":314.5771,"ARG_OF_PERICENTER":96.2758,"MEAN_ANOMALY":263.8602,"EPHEMERIS_TYPE":0,"CLASSIFICATION_TYPE":"U","NORAD_CAT_ID":54135,"ELEMENT_SET_NO":999,"REV_AT_EPOCH":17047,"BSTAR":6.4856e-05,"MEAN_MOTION_DOT":3.9e-07,"MEAN_MOTION_DDOT":0.0},{"OBJECT_NAME":"ONEWEB-0518","OBJECT_ID":"2022-138Z","EPOCH":"2026-04-30T00:02:49.485696","MEAN_MOTION":13.19728049,"ECCENTRICITY":0.0001726,"INCLINATION":87.915,"RA_OF_ASC_NODE":314.5853,"ARG_OF_PERICENTER":81.365,"MEAN_ANOMALY":278.7678,"EPHEMERIS_TYPE":0,"CLASSIFICATION_TYPE":"U","NORAD_CAT_ID":54136,"ELEMENT_SET_NO":999,"REV_AT_EPOCH":17047,"BSTAR":-0.00017745,"MEAN_MOTION_DOT":-5.8e-07,"MEAN_MOTION_DDOT":0.0},{"OBJECT_NAME":"ONEWEB-0519","OBJECT_ID":"2022-138AA","EPOCH":"2026-04-30T02:28:24.772800","MEAN_MOTION":13.19725248,"ECCENTRICITY":0.0001959,"INCLINATION":87.9161,"RA_OF_ASC_NODE":314.5507,"ARG_OF_PERICENTER":93.0248,"MEAN_ANOMALY":267.1109,"EPHEMERIS_TYPE":0,"CLASSIFICATION_TYPE":"U","NORAD_CAT_ID":54137,"ELEMENT_SET_NO":999,"REV_AT_EPOCH":17049,"BSTAR":0.00024167,"MEAN_MOTION_DOT":1.1e-06,"MEAN_MOTION_DDOT":0.0},{"OBJECT_NAME":"ONEWEB-0520","OBJECT_ID":"2022-138AB","EPOCH":"2026-04-29T23:40:06.423744","MEAN_MOTION":13.19724713,"ECCENTRICITY":0.000194,"INCLINATION":87.9155,"RA_OF_ASC_NODE":314.576,"ARG_OF_PERICENTER":81.7853,"MEAN_ANOMALY":278.35,"EPHEMERIS_TYPE":0,"CLASSIFICATION_TYPE":"U","NORAD_CAT_ID":54138,"ELEMENT_SET_NO":999,"REV_AT_EPOCH":17046,"BSTAR":-3.851e-05,"MEAN_MOTION_DOT":-2e-08,"MEAN_MOTION_DDOT":0.0},{"OBJECT_NAME":"ONEWEB-0521","OBJECT_ID":"2022-138AC","EPOCH":"2026-04-30T02:17:01.951872","MEAN_MOTION":13.19724349,"ECCENTRICITY":0.0001884,"INCLINATION":87.916,"RA_OF_ASC_NODE":314.542,"ARG_OF_PERICENTER":95.8789,"MEAN_ANOMALY":264.2559,"EPHEMERIS_TYPE":0,"CLASSIFICATION_TYPE":"U","NORAD_CAT_ID":54139,"ELEMENT_SET_NO":999,"REV_AT_EPOCH":17042,"BSTAR":0.00013763,"MEAN_MOTION_DOT":6.8e-07,"MEAN_MOTION_DDOT":0.0}]