ONEWEB-0505             
1 54123U 22138L   26119.98142756  .00000017  00000+0  99124-5 0  9999
2 54123  87.9161 314.5771 0002184  80.6954 279.4426 13.19726527170458
ONEWEB-0506             
1 54124U 22138M   26120.03198755  .00000079  00000+0  16374-3 0  9990
2 54124  87.9159 314.5638 0001978  83.0174 277.1183 13.19724652170451
ONEWEB-0507             
1 54125U 22138N   26119.97669529  .00000040  00000+0  67698-4 0  9998
2 54125  87.9150 314.5915 0001893  82.8163 277.3185 13.19723817170492
ONEWEB-0508             
1 54126U 22138P   26119.97354979  .00000100  00000+0  21820-3 0  9992
2 54126  87.9150 314.5916 0001936  75.1425 284.9922 13.19725054170474
ONEWEB-0509             
1 54127U 22138Q   26120.09991527  .00000071  00000+0  14409-3 0  9996
2 54127  87.9161 314.5510 0001856  85.5081 274.6264 13.19724370170465
ONEWEB-0510             
1 54128U 22138R   26119.95017867  .00000082  00000+0  17092-3 0  9999
2 54128  87.9145 284.0605 0001645 110.3349 249.7961 13.20773142172916
ONEWEB-0511             
1 54129U 22138S   26120.09674382  .00000049  00000+0  89542-4 0  9991
2 54129  87.9159 314.5556 0002093  91.9832 268.1540 13.19726641170494
ONEWEB-0512             
1 54130U 22138T   26120.08885822  .00000068  00000+0  13871-3 0  9997
2 54130  87.9149 314.5657 0002113  84.6645 275.4729 13.19725906170461
ONEWEB-0513             
1 54131U 22138U   26120.26576675  .00000063  00000+0  12298-3 0  9998
2 54131  87.9155 314.4806 0002741  84.7406 275.4039 13.20266252170399
ONEWEB-0514             
1 54132U 22138V   26120.25627822  .00000136  00000+0  30833-3 0  9995
2 54132  87.9155 314.5220 0001743  92.4457 267.6875 13.19724477170504
ONEWEB-0515             
1 54133U 22138W   26120.01328394  .00000016  00000+0  69439-5 0  9995
2 54133  87.9152 284.0399 0000944 106.2700 253.8537 13.20773404172945
ONEWEB-0516             
1 54134U 22138X   26120.00354151  .00000034  00000+0  52582-4 0  9995
2 54134  87.9149 314.5833 0001738  84.5251 275.6080 13.19724038170473
ONEWEB-0517             
1 54135U 22138Y   26119.98301903  .00000039  00000+0  64856-4 0  9990
2 54135  87.9150 314.5771 0001997  96.2758 263.8602 13.19724068170478
ONEWEB-0518             
1 54136U 22138Z   26120.00196164 -.00000058  00000+0 -17745-3 0  9994
2 54136  87.9150 314.5853 0001726  81.3650 278.7678 13.19728049170477
ONEWEB-0519             
1 54137U 22138AA  26120.10306450  .00000110  00000+0  24167-3 0  9990
2 54137  87.9161 314.5507 0001959  93.0248 267.1109 13.19725248170498
ONEWEB-0520             
1 54138U 22138AB  26119.98618546 -.00000002  00000+0 -38510-4 0  9997
2 54138  87.9155 314.5760 0001940  81.7853 278.3500 13.19724713170461
ONEWEB-0521             
1 54139U 22138AC  26120.09516148  .00000068  00000+0  13763-3 0  9999
2 54139  87.9160 314.5420 0001884  95.8789 264.2559 13.19724349170421
